0296P         2020 09 17.8254  1.825851  0.478280  350.0249  263.6376   25.2298  20180304  14.0  4.0  296P/Garradd                                             MPC 92278
0297P         2021 01 22.1520  2.344906  0.319447  132.3276   97.6663   10.3259  20180304  15.0  4.0  297P/Beshore                                             MPC102956
0298P         2020 09  6.1751  2.200278  0.387479  100.7675   52.8282    7.8721  20180304  15.0  4.0  298P/Christensen                                         MPC105243
0299P         2015 02 24.3902  3.141467  0.282791  323.7428  271.6411   10.4761  20180304  11.5  4.0  299P/Catalina-PANSTARRS                                  MPC101100
0300P         2018 11  2.0686  0.832494  0.691586  222.8608   95.6838    5.6758  20180304  16.0  4.0  300P/Catalina                                            MPC 89314
0301P         2014 09  1.9974  2.367000  0.587098  193.6912  351.1690   10.3622  20180304  13.0  4.0  301P/LINEAR-NEAT                                         MPC 89014
0302P         2016 04 30.1678  3.300915  0.228815  208.2079  121.7633    6.0309  20180304  12.5  4.0  302P/Lemmon-PANSTARRS                                    MPC108598
0303P         2014 10 13.1339  2.483897  0.508645  356.8815  347.9983    7.0063  20180304  13.5  4.0  303P/NEAT                                                MPC 92278
0304P         2020 07 16.7739  1.191315  0.621121  335.2260   58.2557    2.8341  20180304  16.5  4.0  304P/Ory                                                 MPC 92987
0305P         2014 11 16.3162  1.429207  0.692487  147.3152  240.1541   11.6353  20180304  18.0  4.0  305P/Skiff                                               MPC101100
0306P         2020 01 22.8152  1.266523  0.593860    0.8443  341.4675    8.3211  20180304  19.0  4.0  306P/LINEAR                                              MPC 92278
0307P         2014 12 19.2095  1.897010  0.673095  222.3035  158.0913    4.4252  20180304  15.0  4.0  307P/LINEAR                                              MPC 91619
0308P         2015 05  5.9542  4.223817  0.362062  333.8963   63.1365    4.8489  20180304  13.0  2.0  308P/Lagerkvist-Carsenty                                 MPC109148
0309P         2015 02 18.2546  1.661331  0.619823   49.7953   10.6113   17.1995  20180304  15.0  4.0  309P/LINEAR                                              MPC 94284
0310P         2015 04 17.7617  2.404146  0.423736   31.9529    8.9751   13.1591  20180304  13.5  4.0  310P/Hill                                                MPC 98566
0311P         2017 07 10.5903  1.935593  0.115542  143.9689  279.2577    4.9669  20180304  17.0  4.0  311P/PANSTARRS                                           MPC109148
0312P         2020 09 25.0993  1.974828  0.429439  207.6699  144.8500   19.7747  20180304  16.0  4.0  312P/NEAT                                                MPC 92279
0313P         2020 04 12.1720  2.412852  0.237689  254.0641  106.1932   10.9500  20180304  15.0  4.0  313P/Gibbs                                               MPC 92987
0314P         2016 10  9.0839  4.235949  0.417469  213.9482  267.6646    3.9778  20180304   9.5  4.0  314P/Montani                                             MPC105243
0315P         2016 12  6.9629  2.416907  0.518770   67.1719   69.4836   17.9461  20180304  11.0  4.0  315P/LONEOS                                              MPC105243
0316P         2015 11  2.2920  3.589538  0.168049  192.6796  246.8003    9.9008  20180304  13.5  4.0  316P/LONEOS-Christensen                                  MPC 92279
0317P         2015 08 17.1891  1.274987  0.570298  334.8382  275.5250   11.9456  20180304  17.5  4.0  317P/WISE                                                MPC102103
0318P         2015 10 22.3243  2.445366  0.674009  313.1244   35.7249   17.8705  20180304   8.5  6.0  318P/McNaught-Hartley                                    MPC102103
0319P         2015 07  1.8552  1.194534  0.665543  203.6058  111.3594   15.0844  20180304  15.0  4.0  319P/Catalina-McNaught                                   MPC 97499
0320P         2015 08  7.5365  0.975001  0.685093    0.7368  295.9179    4.9041  20180304  20.5  4.0  320P/McNaught                                            MPC 95736
0321P         2020 01 17.3697  0.045931  0.981040  172.5538  165.2062   20.1577  20180304  20.0  4.0  321P/SOHO                                                MPC 94284
0321P         2020 01 17.3973  0.046038  0.980996  172.7116  165.0535   20.0114  20180304  20.0  4.0  321P/SOHO                                                MPEC 2017-L52
0322P         2019 08 30.8463  0.050938  0.979739   51.5585  356.9442   12.1471  20180304  19.0  4.0  322P/SOHO                                                MPC102103
0323P         2016 11 23.6044  0.039606  0.984668  354.3220  323.0020    4.6760  20180304  20.0  4.0  323P/SOHO                                                MPC102957
0324P         2015 11 29.2425  2.617768  0.154028   58.3579  270.6378   21.4227  20180304  13.0  4.0  324P/La Sagra                                            MPC108598
0325P         2015 08 15.4631  1.430724  0.594022  343.6325  257.5859   16.6993  20180304  14.0  4.0  325P/Yang-Gao                                            MPC 95736
0326P         2015 10 22.0797  2.779077  0.316749  278.7342   99.8118    2.4707  20180304  13.5  4.0  326P/Hill                                                MPC103849
0327P         2015 12 12.1159  1.560832  0.562144  185.0645  173.9628   36.2142  20180304  16.0  4.0  327P/Van Ness                                            MPC 97499
0328P         2015 12 23.8302  1.886832  0.550762   30.5796  341.5989   17.6497  20180304  14.5  4.0  328P/LONEOS-Tucker                                       MPC109148
0329P         2015 12  4.8211  1.667731  0.679175  343.4134   87.8757   21.6018  20180304  13.5  4.0  329P/LINEAR-Catalina                                     MPC101101
0330P         2016 08 31.1362  2.956553  0.552740  187.4905  294.0638   15.5580  20180304  12.0  4.0  330P/Catalina                                            MPC105243
0331P         2020 09 14.4296  2.888434  0.039813  180.5920  216.8145    9.7446  20180304  12.0  4.0  331P/Gibbs                                               MPC 98566
0332P         2016 03 17.1036  1.573710  0.490055  152.4381    3.7838    9.3866  20180304  18.0  4.0  332P/Ikeya-Murakami                                      MPEC 2016-K18
0332P      a  2016 03 17.1034  1.573711  0.490055  152.4379    3.7838    9.3866  20180304  18.0  4.0  332P-A/Ikeya-Murakami                                    MPC 99822
0332P      b  2016 03 17.1650  1.572891  0.489707  152.3711    3.8028    9.3805            19.0  4.0  332P-B/Ikeya-Murakami                                    MPEC 2016-EI8
0332P      c  2016 03 17.0582  1.573678  0.490060  152.4293    3.7842    9.3856  20180304  16.5  4.0  332P-C/Ikeya-Murakami                                    MPC 99822
0332P      d  2016 03 17.2819  1.572064  0.489778  152.4393    3.7923    9.3761            19.0  4.0  332P-D/Ikeya-Murakami                                    MPEC 2016-ED0
0332P      e  2016 03 17.0610  1.573139  0.489220  152.2825    3.8228    9.3774            21.0  4.0  332P-E/Ikeya-Murakami                                    MPEC 2016-ED0
0332P      f  2016 03 17.8554  1.584174  0.499189  152.8203    3.4757    9.5293            21.0  4.0  332P-F/Ikeya-Murakami                                    MPEC 2016-ED0
0332P      g  2016 03 19.5375  1.549652  0.492004  154.4000    3.6955    9.2523            19.0  4.0  332P-G/Ikeya-Murakami                                    MPEC 2016-ED0
0332P      h  2016 03 17.2395  1.573662  0.490095  152.4301    3.7839    9.3861  20180304  19.0  4.0  332P-H/Ikeya-Murakami                                    MPC100285
0332P      h  2016 03 17.2395  1.573662  0.490095  152.4301    3.7839    9.3861  20180304  19.0  4.0  332P-H/Ikeya-Murakami                                    MPEC 2016-K18
0332P      i  2016 03 17.3515  1.573073  0.489555  152.3297    3.8048    9.3791            20.5  2.0  332P-I/Ikeya-Murakami                                    MPEC 2016-ED0
0332P      j  2016 03 17.7739  1.575357  0.494294  152.7712    3.6729    9.4296            22.5  2.0  332P-J/Ikeya-Murakami                                    MPEC 2016-EI8
0333P         2016 04  3.8688  1.114645  0.736105   26.1314  115.5752  131.8590  20180304  15.0  4.0  333P/LINEAR                                              MPC104796
0334P         2017 05  6.3809  4.184982  0.362433   80.7834   92.4913   19.0682  20180304  10.5  4.0  334P/NEAT                                                MPC108598
0335P         2015 11  5.6570  1.629386  0.544790  162.2951  330.8458    7.2878  20180304  17.0  4.0  335P/Gibbs                                               MPC 10028
0336P         2017 02  3.1746  2.781985  0.446181  308.5257  298.2560   17.8381  20180304  13.5  4.0  336P/McNaught                                            MPC105244
0337P         2016 07 13.3556  1.654430  0.496807  160.9014  106.0884   15.3672  20180304  17.0  4.0  337P/WISE                                                MPC101101
0338P         2016 11 21.9787  2.301345  0.410302    4.5027    9.8050   25.3504  20180304  12.0  4.0  338P/McNaught                                            MPC104796
0339P         2016 07 24.1695  1.340678  0.636925   27.4669  172.7727    5.7432  20180304  17.0  4.0  339P/Gibbs                                               MPC101101
0340P         2016 11 18.4550  3.062607  0.279781   35.7633  291.7475    2.0784  20180304  13.0  4.0  340P/Boattini                                            MPC102957
0341P         2016 05 26.6544  2.519359  0.413920  312.1204   30.0589    3.7934  20180304  12.5  4.0  341P/Gibbs                                               MPC109148
